0 COSMOS 1124 DEB
1 48259U 79077J   24278.32411480  .00000455  00000-0  00000-0 0  9998
2 48259  63.4377 288.0212 7169450  10.3588 358.8990  2.03796059210859
0 COSMOS 1124 DEB
1 48259U 79077J   24278.81480303  .00000519  00000-0  00000-0 0  9993
2 48259  63.4377 287.9562 7169804  10.3594 358.8921  2.03794676210863
0 COSMOS 1124 DEB
1 48259U 79077J   24280.28683328  .00000718  00000-0  00000+0 0  9999
2 48259  63.4359 287.7593 7170697  10.3613 358.8744  2.03796063210886
0 COSMOS 1124 DEB
1 48259U 79077J   24288.13766513  .00000713  00000-0  00000+0 0  9994
2 48259  63.4281 286.7088 7175379  10.3769 358.8686  2.03806839211049
0 COSMOS 1124 DEB
1 48259U 79077J   24289.11896555  .00000491  00000-0  00000-0 0  9997
2 48259  63.4293 286.5761 7176037  10.3784 358.8584  2.03809445211073
0 COSMOS 1124 DEB
1 48259U 79077J   24290.10024734  .00000237  00000-0  00000-0 0  9998
2 48259  63.4279 286.4438 7176686  10.3801 358.8427  2.03812039211098
0 COSMOS 1124 DEB
1 48259U 79077J   24290.10024734  .00000237  00000-0  00000+0 0  9997
2 48259  63.4279 286.4438 7176686  10.3801 358.8427  2.03812039211087
0 COSMOS 1124 DEB
1 48259U 79077J   24293.04401964 -.00000515  00000-0  00000-0 0  9998
2 48259  63.4279 286.0483 7178663  10.3823 358.7859  2.03817524211154
0 COSMOS 1124 DEB
1 48259U 79077J   24293.04401964 -.00000515  00000-0  00000+0 0  9997
2 48259  63.4279 286.0483 7178663  10.3823 358.7859  2.03817524211143
0 COSMOS 1124 DEB
1 48259U 79077J   24295.00653104 -.00000830  00000-0  00000-0 0  9991
2 48259  63.4234 285.7826 7180220  10.3831 358.7666  2.03818013211197
0 COSMOS 1124 DEB
1 48259U 79077J   24296.47844492 -.00000918  00000-0  00000-0 0  9992
2 48259  63.4221 285.5854 7181330  10.3837 358.7666  2.03816011211221
0 COSMOS 1124 DEB
1 48259U 79077J   24297.95036133 -.00000892  00000-0  00000-0 0  9992
2 48259  63.4188 285.3860 7182547  10.3848 358.7735  2.03815338211252
0 COSMOS 1124 DEB
1 48259U 79077J   24297.95036133 -.00000892  00000-0  00000+0 0  9991
2 48259  63.4188 285.3860 7182547  10.3848 358.7735  2.03815338211241
0 COSMOS 1124 DEB
1 48259U 79077J   24299.42234274 -.00000786  00000-0  00000+0 0  9993
2 48259  63.4150 285.1857 7183650  10.3855 358.7796  2.03807169211271
0 COSMOS 1124 DEB
1 48259U 79077J   24299.91295885 -.00000738  00000-0  00000-0 0  9990
2 48259  63.4159 285.1185 7183922  10.3842 358.7807  2.03810913211298
0 COSMOS 1124 DEB
1 48259U 79077J   24299.91295885 -.00000738  00000-0  00000+0 0  9999
2 48259  63.4159 285.1185 7183922  10.3842 358.7807  2.03810913211287
0 COSMOS 1124 DEB
1 48259U 79077J   24300.89427501 -.00000635  00000-0  00000-0 0  9998
2 48259  63.4098 284.9870 7184823  10.3836 358.7799  2.03807926211315
0 COSMOS 1124 DEB
1 48259U 79077J   24300.89427501 -.00000635  00000-0  00000+0 0  9997
2 48259  63.4098 284.9870 7184823  10.3836 358.7799  2.03807926211304
0 COSMOS 1124 DEB
1 48259U 79077J   24303.83824062 -.00000300  00000-0  00000-0 0  9997
2 48259  63.4017 284.5876 7186872  10.3918 358.7546  2.03801574211374
0 COSMOS 1124 DEB
1 48259U 79077J   24303.83824062 -.00000300  00000-0  00000+0 0  9996
2 48259  63.4017 284.5876 7186872  10.3918 358.7546  2.03801574211363
0 COSMOS 1124 DEB
1 48259U 79077J   24304.81957044 -.00000187  00000-0  00000-0 0  9996
2 48259  63.3988 284.4545 7187460  10.3940 358.7414  2.03800522211399
0 COSMOS 1124 DEB
1 48259U 79077J   24307.76360175  .00000183  00000-0  00000-0 0  9991
2 48259  63.3927 284.0574 7189627  10.4040 358.7068  2.03798302211453
0 COSMOS 1124 DEB
1 48259U 79077J   24307.76360175  .00000183  00000-0  00000+0 0  9990
2 48259  63.3927 284.0574 7189627  10.4040 358.7068  2.03798302211442
0 COSMOS 1124 DEB
1 48259U 79077J   24308.74495873  .00000322  00000-0  00000-0 0  9999
2 48259  63.3904 283.9250 7190293  10.4072 358.7011  2.03797996211471
0 COSMOS 1124 DEB
1 48259U 79077J   24309.23564025  .00000393  00000-0  00000-0 0  9998
2 48259  63.3900 283.8586 7190590  10.4086 358.6999  2.03797843211489
0 COSMOS 1124 DEB
1 48259U 79077J   24309.72632241  .00000467  00000-0  00000-0 0  9990
2 48259  63.3889 283.7923 7190919  10.4102 358.6997  2.03797869211490
0 COSMOS 1124 DEB
1 48259U 79077J   24310.21700631  .00000540  00000-0  00000-0 0  9997
2 48259  63.3877 283.7260 7191199  10.4116 358.7005  2.03797871211503
0 COSMOS 1124 DEB
1 48259U 79077J   24310.21700631  .00000540  00000-0  00000+0 0  9996
2 48259  63.3877 283.7260 7191199  10.4116 358.7005  2.03797871211491
0 COSMOS 1124 DEB
1 48259U 79077J   24311.19837711  .00000686  00000-0  00000-0 0  9996
2 48259  63.3858 283.5926 7191739  10.4140 358.7046  2.03797990211525
0 COSMOS 1124 DEB
1 48259U 79077J   24312.17974916  .00000822  00000-0  00000-0 0  9996
2 48259  63.3834 283.4600 7192316  10.4170 358.7107  2.03798315211544
0 COSMOS 1124 DEB
1 48259U 79077J   24319.04909528  .00000674  00000-0  00000-0 0  9991
2 48259  63.3677 282.5291 7196571  10.4399 358.6663  2.03808990211687
0 COSMOS 1124 DEB
1 48259U 79077J   24319.04909528  .00000674  00000-0  00000+0 0  9990
2 48259  63.3677 282.5291 7196571  10.4399 358.6663  2.03808990211676
0 COSMOS 1124 DEB
1 48259U 79077J   24320.03037517  .00000463  00000-0  00000-0 0  9998
2 48259  63.3642 282.3950 7197156  10.4421 358.6519  2.03812391211708
0 COSMOS 1124 DEB
1 48259U 79077J   24321.01165633  .00000230  00000-0  00000-0 0  9990
2 48259  63.3619 282.2614 7197791  10.4440 358.6424  2.03814496211729
0 COSMOS 1124 DEB
1 48259U 79077J   24322.97420073 -.00000245  00000-0  00000-0 0  9995
2 48259  63.3578 281.9933 7199284  10.4442 358.6421  2.03818641211761
0 COSMOS 1124 DEB
1 48259U 79077J   24322.97420073 -.00000245  00000-0  00000+0 0  9994
2 48259  63.3578 281.9933 7199284  10.4442 358.6421  2.03818641211750
0 COSMOS 1124 DEB
1 48259U 79077J   24323.95547043 -.00000461  00000-0  00000-0 0  9991
2 48259  63.3560 281.8596 7200164  10.4438 358.6496  2.03820041211782
0 COSMOS 1124 DEB
1 48259U 79077J   24326.89925784 -.00000909  00000-0  00000-0 0  9996
2 48259  63.3450 281.4561 7202361  10.4461 358.6756  2.03821625211840
0 COSMOS 1124 DEB
1 48259U 79077J   24326.89925784 -.00000909  00000-0  00000+0 0  9995
2 48259  63.3450 281.4561 7202361  10.4461 358.6756  2.03821625211839
0 COSMOS 1124 DEB
1 48259U 79077J   24327.38988792 -.00000947  00000-0  00000-0 0  9991
2 48259  63.3444 281.3895 7202736  10.4454 358.6781  2.03821290211857
0 COSMOS 1124 DEB
1 48259U 79077J   24327.88051349 -.00000974  00000-0  00000-0 0  9995
2 48259  63.3430 281.3223 7203038  10.4455 358.6797  2.03821036211860
0 COSMOS 1124 DEB
1 48259U 79077J   24328.86177046 -.00000997  00000-0  00000-0 0  9992
2 48259  63.3394 281.1872 7203694  10.4468 358.6798  2.03819582211885
0 COSMOS 1124 DEB
1 48259U 79077J   24329.84303042 -.00000978  00000-0  00000-0 0  9997
2 48259  63.3359 281.0522 7204351  10.4483 358.6765  2.03817590211909
0 COSMOS 1124 DEB
1 48259U 79077J   24329.84303042 -.00000978  00000-0  00000+0 0  9996
2 48259  63.3359 281.0522 7204351  10.4483 358.6765  2.03817590211897
0 COSMOS 1124 DEB
1 48259U 79077J   24331.80557540 -.00000837  00000-0  00000-0 0  9994
2 48259  63.3298 280.7823 7205666  10.4523 358.6635  2.03812458211944
0 COSMOS 1124 DEB
1 48259U 79077J   24331.80557540 -.00000837  00000-0  00000+0 0  9993
2 48259  63.3298 280.7823 7205666  10.4523 358.6635  2.03812458211933
0 COSMOS 1124 DEB
1 48259U 79077J   24334.74948657 -.00000471  00000-0  00000-0 0  9997
2 48259  63.3188 280.3778 7207590  10.4612 358.6477  2.03805572212005
0 COSMOS 1124 DEB
1 48259U 79077J   24334.74948657 -.00000471  00000-0  00000+0 0  9996
2 48259  63.3188 280.3778 7207590  10.4612 358.6477  2.03805572211992
0 COSMOS 1124 DEB
1 48259U 79077J   24340.14690316  .00000291  00000-0  00000-0 0  9993
2 48259  63.2977 279.6373 7210674  10.4797 358.6937  2.03802428212113
0 COSMOS 1124 DEB
1 48259U 79077J   24340.14690383  .00000291  00000-0  00000+0 0  9996
2 48259  63.2977 279.6368 7210677  10.4791 358.6936  2.03802130212102
0 COSMOS 1124 DEB
1 48259U 79077J   24340.63757953  .00000359  00000-0  00000-0 0  9993
2 48259  63.2964 279.5695 7210958  10.4807 358.6991  2.03802610212126
0 COSMOS 1124 DEB
1 48259U 79077J   24341.61893264  .00000489  00000-0  00000-0 0  9992
2 48259  63.2930 279.4346 7211522  10.4841 358.7073  2.03802756212142
0 COSMOS 1124 DEB
1 48259U 79077J   24341.61893401  .00000489  00000-0  00000-0 0  9995
2 48259  63.2926 279.4345 7211529  10.4843 358.7074  2.03802726212143
0 COSMOS 1124 DEB
1 48259U 79077J   24342.10960608  .00000551  00000-0  00000-0 0  9994
2 48259  63.2913 279.3671 7211783  10.4858 358.7095  2.03802897212151
0 COSMOS 1124 DEB
1 48259U 79077J   24342.10960608  .00000551  00000-0  00000+0 0  9993
2 48259  63.2913 279.3671 7211783  10.4858 358.7095  2.03802897212140
0 COSMOS 1124 DEB
1 48259U 79077J   24343.09094158  .00000665  00000-0  00000-0 0  9997
2 48259  63.2874 279.2321 7212340  10.4894 358.7097  2.03803814212172
0 COSMOS 1124 DEB
1 48259U 79077J   24343.09094158  .00000665  00000-0  00000+0 0  9996
2 48259  63.2874 279.2321 7212340  10.4894 358.7097  2.03803814212161
0 COSMOS 1124 DEB
1 48259U 79077J   24351.92253491  .00000297  00000-0  00000-0 0  9996
2 48259  63.2534 278.0110 7217986  10.5139 358.7137  2.03826737212356
0 COSMOS 1124 DEB
1 48259U 79077J   24351.92253491  .00000297  00000-0  00000+0 0  9995
2 48259  63.2534 278.0110 7217986  10.5139 358.7137  2.03826737212345
0 COSMOS 1124 DEB
1 48259U 79077J   24352.41315704  .00000185  00000-0  00000-0 0  9993
2 48259  63.2510 277.9425 7218347  10.5150 358.7217  2.03828521212365
0 COSMOS 1124 DEB
1 48259U 79077J   24352.90377175  .00000068  00000-0  00000-0 0  9997
2 48259  63.2495 277.8746 7218596  10.5152 358.7290  2.03830063212376
0 COSMOS 1124 DEB
1 48259U 79077J   24353.39437905 -.00000055  00000-0  00000-0 0  9996
2 48259  63.2469 277.8060 7218933  10.5165 358.7361  2.03832614212389
0 COSMOS 1124 DEB
1 48259U 79077J   24353.39437905 -.00000055  00000-0  00000+0 0  9995
2 48259  63.2469 277.8060 7218933  10.5165 358.7361  2.03832614212378
